NORAD_CAT_ID,OBJECT_NAME,OBJECT_TYPE,EPOCH,MEAN_MOTION,ECCENTRICITY,INCLINATION,RA_OF_ASC_NODE,ARG_OF_PERICENTER,MEAN_ANOMALY,BSTAR,MEAN_MOTION_DOT,MEAN_MOTION_DDOT,TLE_LINE0,TLE_LINE1,TLE_LINE2,SEMIMAJOR_AXIS,PERIOD,APOGEE,PERIGEE,DECAYED
51973.0,STARLINK-3679,PAYLOAD,2024-01-09 04:05:59,15.06414662,0.0001452,53.0551,339.6063,93.9765,266.139,0.00033839,4.764e-05,0.0,0 STARLINK-3679,1 51973U 22025T   24009.17083234  .00004764  00000-0  33839-3 0  9999,2 51973  53.0551 339.6063 0001452  93.9765 266.1390 15.06414662102866,6925.304,95.591,548.174,546.163,0.0
51973.0,STARLINK-3679,PAYLOAD,2024-01-09 07:17:04,15.06420538,0.0001482,53.0554,339.0069,94.3033,265.8126,0.00057893,8.357e-05,0.0,0 STARLINK-3679,1 51973U 22025T   24009.30352455  .00008357  00000-0  57893-3 0  9996,2 51973  53.0554 339.0069 0001482  94.3033 265.8126 15.06420538101798,6925.286,95.591,548.177,546.124,0.0
51973.0,STARLINK-3679,PAYLOAD,2024-01-10 03:59:05,15.06408811,0.0001687,53.0568,335.1253,90.9408,269.1775,0.00029789,4.159e-05,0.0,0 STARLINK-3679,1 51973U 22025T   24010.16603813  .00004159  00000-0  29789-3 0  9998,2 51973  53.0568 335.1253 0001687  90.9408 269.1775 15.06408811103014,6925.322,95.592,548.355,546.018,0.0
51973.0,STARLINK-3679,PAYLOAD,2024-01-10 07:10:10,15.06406347,0.0001502,53.057,334.5331,99.1216,260.9943,0.00023086,3.159e-05,0.0,0 STARLINK-3679,1 51973U 22025T   24010.29873139  .00003159  00000-0  23086-3 0  9995,2 51973  53.0570 334.5331 0001502  99.1216 260.9943 15.06406347101949,6925.329,95.592,548.234,546.154,0.0
51973.0,STARLINK-3679,PAYLOAD,2024-01-11 03:52:11,15.06408152,0.0001683,53.0562,330.6638,85.6465,274.4716,0.00017216,2.284e-05,0.0,0 STARLINK-3679,1 51973U 22025T   24011.16123951  .00002284  00000-0  17216-3 0  9998,2 51973  53.0562 330.6638 0001683  85.6465 274.4716 15.06408152103163,6925.324,95.592,548.354,546.023,0.0
51973.0,STARLINK-3679,PAYLOAD,2024-01-11 21:23:07,15.06400833,0.0002061,53.056,327.3958,81.3103,278.8119,9.283e-05,1.101e-05,0.0,0 STARLINK-3679,1 51973U 22025T   24011.89105606  .00001101  00000-0  92830-4 0  9998,2 51973  53.0560 327.3958 0002061  81.3103 278.8119 15.06400833102186,6925.346,95.592,548.638,545.784,0.0
51973.0,STARLINK-3679,PAYLOAD,2024-01-12 03:45:16,15.06398123,0.0001793,53.0561,326.2014,87.8471,272.2723,4.1689e-05,3.39e-06,0.0,0 STARLINK-3679,1 51973U 22025T   24012.15644665  .00000339  00000-0  41689-4 0  9999,2 51973  53.0561 326.2014 0001793  87.8471 272.2723 15.06398123103311,6925.354,95.592,548.461,545.978,0.0
51973.0,STARLINK-3679,PAYLOAD,2024-01-12 06:56:21,15.06399828,0.000172,53.0554,325.6034,96.2481,263.8704,6.8455e-05,7.38e-06,0.0,0 STARLINK-3679,1 51973U 22025T   24012.28913858  .00000738  00000-0  68455-4 0  9999,2 51973  53.0554 325.6034 0001720  96.2481 263.8704 15.06399828102242,6925.349,95.592,548.405,546.023,0.0
51973.0,STARLINK-3679,PAYLOAD,2024-01-13 06:49:27,15.06399513,0.0001699,53.0558,321.1329,104.5608,255.5569,2.1419e-05,3.7e-07,0.0,0 STARLINK-3679,1 51973U 22025T   24013.28434247  .00000037  00000-0  21419-4 0  9991,2 51973  53.0558 321.1329 0001699 104.5608 255.5569 15.06399513103488,6925.35,95.592,548.392,546.038,0.0
51973.0,STARLINK-3679,PAYLOAD,2024-01-14 05:07:00,15.06400262,0.0001563,53.0562,316.9613,98.9607,261.1559,0.00016338,2.153e-05,0.0,0 STARLINK-3679,1 51973U 22025T   24014.21320146  .00002153  00000-0  16338-3 0  9991,2 51973  53.0562 316.9613 0001563  98.9607 261.1559 15.06400262102537,6925.348,95.592,548.295,546.13,0.0
51973.0,STARLINK-3679,PAYLOAD,2024-01-15 03:24:33,15.06417093,0.0001692,53.0568,312.7941,97.0362,263.082,0.00042126,6.001e-05,0.0,0 STARLINK-3679,1 51973U 22025T   24015.14205063  .00006001  00000-0  42126-3 0  9994,2 51973  53.0568 312.7941 0001692  97.0362 263.0820 15.06417093103760,6925.296,95.591,548.333,545.989,0.0
51973.0,STARLINK-3679,PAYLOAD,2024-01-16 00:06:34,15.06397368,0.0001706,53.0564,308.9269,70.1277,289.9896,1.3717e-05,-7.7e-07,0.0,0 STARLINK-3679,1 51973U 22025T   24016.00457104 -.00000077  00000-0  13717-4 0  9998,2 51973  53.0564 308.9269 0001706  70.1277 289.9896 15.06397368103895,6925.357,95.592,548.403,546.04,0.0
51973.0,STARLINK-3679,PAYLOAD,2024-01-16 04:53:11,15.064021,0.000156,53.0556,308.0328,87.056,273.0607,6.4389e-05,6.78e-06,0.0,0 STARLINK-3679,1 51973U 22025T   24016.20360774  .00000678  00000-0  64389-4 0  9993,2 51973  53.0556 308.0328 0001560  87.0560 273.0607 15.06402100102831,6925.342,95.592,548.287,546.127,0.0
51973.0,STARLINK-3679,PAYLOAD,2024-01-16 22:24:07,15.06402629,0.0001935,53.0565,304.7511,125.6125,234.5044,-8.2028e-05,-1.503e-05,0.0,0 STARLINK-3679,1 51973U 22025T   24016.93342131 -.00001503  00000-0 -82028-4 0  9990,2 51973  53.0565 304.7511 0001935 125.6125 234.5044 15.06402629102945,6925.341,95.592,548.546,545.865,0.0
51973.0,STARLINK-3679,PAYLOAD,2024-01-17 01:35:12,15.06405322,0.0001742,53.0566,304.1563,98.1713,261.9473,-2.4654e-05,-6.49e-06,0.0,0 STARLINK-3679,1 51973U 22025T   24017.06611277 -.00000649  00000-0 -24654-4 0  9996,2 51973  53.0566 304.1563 0001742  98.1713 261.9473 15.06405322102965,6925.332,95.592,548.404,545.991,0.0
51973.0,STARLINK-3679,PAYLOAD,2024-01-17 22:17:13,15.06389581,0.0002134,53.056,300.2855,122.7597,237.3598,0.00020967,2.842e-05,0.0,0 STARLINK-3679,1 51973U 22025T   24017.92863304  .00002842  00000-0  20967-3 0  9998,2 51973  53.0560 300.2855 0002134 122.7597 237.3598 15.06389581103098,6925.38,95.593,548.723,545.768,0.0
51973.0,STARLINK-3679,PAYLOAD,2024-01-18 01:28:18,15.06395383,0.0001701,53.0556,299.6923,102.2145,257.9034,7.8425e-06,-1.65e-06,0.0,0 STARLINK-3679,1 51973U 22025T   24018.06132562 -.00000165  00000-0  78425-5 0  9990,2 51973  53.0556 299.6923 0001701 102.2145 257.9034 15.06395383104205,6925.363,95.592,548.406,546.05,0.0
51973.0,STARLINK-3679,PAYLOAD,2024-01-18 04:39:23,15.0639599,0.0001678,53.0555,299.0943,102.2035,257.9142,5.2397e-08,-2.81e-06,0.0,0 STARLINK-3679,1 51973U 22025T   24018.19401897 -.00000281  00000-0  52397-7 0  9995,2 51973  53.0555 299.0943 0001678 102.2035 257.9142 15.06395990103136,6925.361,95.592,548.388,546.064,0.0
51973.0,STARLINK-3679,PAYLOAD,2024-01-18 22:10:19,15.06393114,0.0001532,53.0558,295.8194,95.542,264.5744,0.0002553,3.522e-05,0.0,0 STARLINK-3679,1 51973U 22025T   24018.92383269  .00003522  00000-0  25530-3 0  9993,2 51973  53.0558 295.8194 0001532  95.5420 264.5744 15.06393114103242,6925.37,95.593,548.296,546.174,0.0
51973.0,STARLINK-3679,PAYLOAD,2024-01-19 01:21:23,15.06409243,0.0001627,53.056,295.2234,97.7046,262.4128,0.00015025,1.958e-05,0.0,0 STARLINK-3679,1 51973U 22025T   24019.05651958  .00001958  00000-0  15025-3 0  9990,2 51973  53.0560 295.2234 0001627  97.7046 262.4128 15.06409243104354,6925.32,95.592,548.312,546.058,0.0
51973.0,STARLINK-3679,PAYLOAD,2024-01-19 22:03:24,15.06399622,0.0001694,53.055,291.3526,105.2973,254.8203,3.5638e-05,2.49e-06,0.0,0 STARLINK-3679,1 51973U 22025T   24019.91903363  .00000249  00000-0  35638-4 0  9990,2 51973  53.0550 291.3526 0001694 105.2973 254.8203 15.06399622103393,6925.35,95.592,548.388,546.042,0.0
51973.0,STARLINK-3679,PAYLOAD,2024-01-20 01:14:29,15.06399039,0.0001491,53.0556,290.7572,84.5397,275.5762,9.3396e-05,1.11e-05,0.0,0 STARLINK-3679,1 51973U 22025T   24020.05173078  .00001110  00000-0  93396-4 0  9992,2 51973  53.0556 290.7572 0001491  84.5397 275.5762 15.06399039104503,6925.352,95.592,548.249,546.184,0.0
51973.0,STARLINK-3679,PAYLOAD,2024-01-20 21:56:30,15.06397599,0.0001428,53.0552,286.89,84.0546,276.0605,-6.1736e-05,-1.201e-05,0.0,0 STARLINK-3679,1 51973U 22025T   24020.91424660 -.00001201  00000-0 -61736-4 0  9999,2 51973  53.0552 286.8900 0001428  84.0546 276.0605 15.06397599103545,6925.356,95.592,548.21,546.232,0.0
51973.0,STARLINK-3679,PAYLOAD,2024-01-21 02:43:07,15.06415195,0.0001571,53.0557,285.9948,104.7248,255.3915,-0.00019597,-3.201e-05,0.0,0 STARLINK-3679,1 51973U 22025T   24021.11327750 -.00003201  00000-0 -19597-3 0  9993,2 51973  53.0557 285.9948 0001571 104.7248 255.3915 15.06415195104661,6925.302,95.591,548.255,546.079,0.0
51973.0,STARLINK-3679,PAYLOAD,2024-01-21 21:49:36,15.06395351,0.0001592,53.0556,282.4206,90.3517,269.7654,0.00010456,1.276e-05,0.0,0 STARLINK-3679,1 51973U 22025T   24021.90944711  .00001276  00000-0  10456-3 0  9995,2 51973  53.0556 282.4206 0001592  90.3517 269.7654 15.06395351103693,6925.363,95.592,548.33,546.125,0.0
51973.0,STARLINK-3679,PAYLOAD,2024-01-22 02:36:12,15.06407505,0.0001402,53.0552,281.5287,78.7443,281.3703,0.00021144,2.87e-05,0.0,0 STARLINK-3679,1 51973U 22025T   24022.10847753  .00002870  00000-0  21144-3 0  9993,2 51973  53.0552 281.5287 0001402  78.7443 281.3703 15.06407505103720,6925.326,95.592,548.161,546.22,0.0
51973.0,STARLINK-3679,PAYLOAD,2024-01-22 21:42:41,15.06401861,0.0001324,53.0543,277.949,103.5983,256.5153,5.9304e-05,6.02e-06,0.0,0 STARLINK-3679,1 51973U 22025T   24022.90464419  .00000602  00000-0  59304-4 0  9996,2 51973  53.0543 277.9490 0001324 103.5983 256.5153 15.06401861103849,6925.343,95.592,548.125,546.291,0.0
51973.0,STARLINK-3679,PAYLOAD,2024-01-22 23:18:13,15.06403324,0.0001444,53.056,277.6475,130.1982,229.9134,-3.125e-05,-7.47e-06,0.0,0 STARLINK-3679,1 51973U 22025T   24022.97099138 -.00000747  00000-0 -31250-4 0  9997,2 51973  53.0560 277.6475 0001444 130.1982 229.9134 15.06403324104947,6925.338,95.592,548.203,546.203,0.0
51973.0,STARLINK-3679,PAYLOAD,2024-01-23 21:35:46,15.0640782,0.000156,53.0555,273.4857,55.5603,304.5533,3.3859e-06,-2.31e-06,0.0,0 STARLINK-3679,1 51973U 22025T   24023.89984642 -.00000231  00000-0  33859-5 0  9997,2 51973  53.0555 273.4857 0001560  55.5603 304.5533 15.06407820103990,6925.325,95.592,548.27,546.109,0.0
51973.0,STARLINK-3679,PAYLOAD,2024-01-23 23:11:18,15.06409873,0.0001833,53.0566,273.1872,50.0381,310.0769,3.3354e-05,2.15e-06,0.0,0 STARLINK-3679,1 51973U 22025T   24023.96619158  .00000215  00000-0  33354-4 0  9992,2 51973  53.0566 273.1872 0001833  50.0381 310.0769 15.06409873105098,6925.318,95.592,548.453,545.914,0.0
